NORAD_CAT_ID,OBJECT_NAME,OBJECT_TYPE,EPOCH,MEAN_MOTION,ECCENTRICITY,INCLINATION,RA_OF_ASC_NODE,ARG_OF_PERICENTER,MEAN_ANOMALY,BSTAR,MEAN_MOTION_DOT,MEAN_MOTION_DDOT,TLE_LINE0,TLE_LINE1,TLE_LINE2,SEMIMAJOR_AXIS,PERIOD,APOGEE,PERIGEE,DECAYED
52374.0,STARLINK-3762,PAYLOAD,2023-04-24 07:36:57,15.08872736,0.0001118,53.2157,224.4207,128.4093,231.7,0.00070613,0.00010978,0.0,0 STARLINK-3762,1 52374U 22045AV  23114.31733688  .00010978  00000-0  70613-3 0  9999,2 52374  53.2157 224.4207 0001118 128.4093 231.7000 15.08872736 57355,6917.78,95.435,540.419,538.872,0.0
52374.0,STARLINK-3762,PAYLOAD,2023-04-24 17:09:15,15.08904225,0.0001137,53.2139,222.6449,52.6156,307.494,0.001407,0.00022215,0.0,0 STARLINK-3762,1 52374U 22045AV  23114.71476377  .00022215  00000-0  14070-2 0  9993,2 52374  53.2139 222.6449 0001137  52.6156 307.4940 15.08904225 57412,6917.684,95.433,540.336,538.763,0.0
52374.0,STARLINK-3762,PAYLOAD,2023-04-25 13:49:18,15.08818114,0.0001236,53.215,218.7765,111.4011,248.7113,-0.00060191,-9.849e-05,0.0,0 STARLINK-3762,1 52374U 22045AV  23115.57591073 -.00009849  00000-0 -60191-3 0  9995,2 52374  53.2150 218.7765 0001236 111.4011 248.7113 15.08818114 57540,6917.947,95.439,540.667,538.957,0.0
52374.0,STARLINK-3762,PAYLOAD,2023-04-26 12:04:43,15.0882549,0.0001185,53.214,214.6121,122.4365,237.6742,0.00056838,8.766e-05,0.0,0 STARLINK-3762,1 52374U 22045AV  23116.50328215  .00008766  00000-0  56838-3 0  9993,2 52374  53.2140 214.6121 0001185 122.4365 237.6742 15.08825490 57682,6917.925,95.438,540.61,538.97,0.0
52374.0,STARLINK-3762,PAYLOAD,2023-04-26 16:50:53,15.08838203,0.0001081,53.2143,213.7212,121.1722,238.9376,0.00095981,0.0001502,0.0,0 STARLINK-3762,1 52374U 22045AV  23116.70200274  .00015020  00000-0  95981-3 0  9992,2 52374  53.2143 213.7212 0001081 121.1722 238.9376 15.08838203 57711,6917.886,95.438,540.499,539.003,0.0
52374.0,STARLINK-3762,PAYLOAD,2023-04-27 11:55:30,15.08855418,0.0001096,53.214,210.1523,117.6572,242.4531,0.00078151,0.00012177,0.0,0 STARLINK-3762,1 52374U 22045AV  23117.49687981  .00012177  00000-0  78151-3 0  9993,2 52374  53.2140 210.1523 0001096 117.6572 242.4531 15.08855418 57836,6917.833,95.437,540.456,538.94,0.0
52374.0,STARLINK-3762,PAYLOAD,2023-04-27 23:03:12,15.08853819,0.00013,53.2139,208.0707,97.0151,263.0989,0.00043461,6.638e-05,0.0,0 STARLINK-3762,1 52374U 22045AV  23117.96055736  .00006638  00000-0  43461-3 0  9993,2 52374  53.2139 208.0707 0001300  97.0151 263.0989 15.08853819 57903,6917.838,95.437,540.602,538.804,0.0
52374.0,STARLINK-3762,PAYLOAD,2023-04-28 11:46:16,15.08852403,0.0001032,53.2143,205.692,98.4025,261.7084,0.00025334,3.748e-05,0.0,0 STARLINK-3762,1 52374U 22045AV  23118.49047260  .00003748  00000-0  25334-3 0  9993,2 52374  53.2143 205.6920 0001032  98.4025 261.7084 15.08852403 57982,6917.842,95.437,540.421,538.994,0.0
52374.0,STARLINK-3762,PAYLOAD,2023-04-28 22:53:58,15.08837268,6.1e-05,53.2153,203.6096,109.7869,250.3189,-0.00033506,-5.616e-05,0.0,0 STARLINK-3762,1 52374U 22045AV  23118.95415134 -.00005616  00000-0 -33506-3 0  9991,2 52374  53.2153 203.6096 0000610 109.7869 250.3189 15.08837268 58059,6917.889,95.438,540.176,539.332,0.0
52374.0,STARLINK-3762,PAYLOAD,2023-04-29 11:37:04,15.08833387,0.0001083,53.2139,201.2315,92.1476,267.964,3.3341e-05,2.43e-06,0.0,0 STARLINK-3762,1 52374U 22045AV  23119.48407760  .00000243  00000-0  33341-4 0  9993,2 52374  53.2139 201.2315 0001083  92.1476 267.9640 15.08833387 58138,6917.901,95.438,540.515,539.016,0.0
52374.0,STARLINK-3762,PAYLOAD,2023-04-30 11:27:51,15.08857796,0.0001208,53.2144,196.7715,85.2534,274.8596,0.00094223,0.00014747,0.0,0 STARLINK-3762,1 52374U 22045AV  23120.47767596  .00014747  00000-0  94223-3 0  9999,2 52374  53.2144 196.7715 0001208  85.2534 274.8596 15.08857796 58286,6917.826,95.436,540.527,538.855,0.0
52374.0,STARLINK-3762,PAYLOAD,2023-04-30 14:38:37,15.08863839,0.0001214,53.2145,196.1763,85.6713,274.4418,0.0010101,0.00015835,0.0,0 STARLINK-3762,1 52374U 22045AV  23120.61015363  .00015835  00000-0  10101-2 0  9994,2 52374  53.2145 196.1763 0001214  85.6713 274.4418 15.08863839 58301,6917.808,95.436,540.512,538.833,0.0
52374.0,STARLINK-3762,PAYLOAD,2023-05-01 11:18:38,15.08843605,0.0001137,53.2149,192.3105,85.9325,274.1797,0.00033025,4.972e-05,0.0,0 STARLINK-3762,1 52374U 22045AV  23121.47127719  .00004972  00000-0  33025-3 0  9999,2 52374  53.2149 192.3105 0001137  85.9325 274.1797 15.08843605 58439,6917.869,95.437,540.521,538.948,0.0
52374.0,STARLINK-3762,PAYLOAD,2023-05-01 16:04:47,15.08841737,0.0001224,53.2142,191.4176,99.2437,260.8693,0.00043095,6.578e-05,0.0,0 STARLINK-3762,1 52374U 22045AV  23121.66999799  .00006578  00000-0  43095-3 0  9997,2 52374  53.2142 191.4176 0001224  99.2437 260.8693 15.08841737 58463,6917.875,95.437,540.587,538.893,0.0
52374.0,STARLINK-3762,PAYLOAD,2023-05-02 12:44:48,15.08856152,0.0001189,53.2149,187.5517,98.0605,262.0522,0.00075918,0.0001182,0.0,0 STARLINK-3762,1 52374U 22045AV  23122.53111475  .00011820  00000-0  75918-3 0  9996,2 52374  53.2149 187.5517 0001189  98.0605 262.0522 15.08856152 58595,6917.831,95.437,540.519,538.873,0.0
52374.0,STARLINK-3762,PAYLOAD,2023-05-02 14:20:11,15.08858659,0.0001154,53.2149,187.2545,94.013,266.0994,0.00079265,0.00012356,0.0,0 STARLINK-3762,1 52374U 22045AV  23122.59735387  .00012356  00000-0  79265-3 0  9990,2 52374  53.2149 187.2545 0001154  94.0130 266.0994 15.08858659 58607,6917.823,95.436,540.487,538.89,0.0
52374.0,STARLINK-3762,PAYLOAD,2023-05-03 04:38:39,15.08839486,7.8e-05,53.2143,184.5778,91.1884,268.9197,0.00010577,1.396e-05,0.0,0 STARLINK-3762,1 52374U 22045AV  23123.19351790  .00001396  00000-0  10577-3 0  9992,2 52374  53.2143 184.5778 0000780  91.1884 268.9197 15.08839486 58699,6917.882,95.438,540.287,539.207,0.0
52374.0,STARLINK-3762,PAYLOAD,2023-05-03 12:35:35,15.08842609,9.54e-05,53.2144,183.0905,93.402,266.7081,0.00037983,5.763e-05,0.0,0 STARLINK-3762,1 52374U 22045AV  23123.52471769  .00005763  00000-0  37983-3 0  9990,2 52374  53.2144 183.0905 0000954  93.4020 266.7081 15.08842609 58741,6917.872,95.437,540.397,539.077,0.0
52374.0,STARLINK-3762,PAYLOAD,2023-05-03 14:10:58,15.08841445,0.0001029,53.2151,182.7945,98.3492,261.7617,0.0003244,4.879e-05,0.0,0 STARLINK-3762,1 52374U 22045AV  23123.59095801  .00004879  00000-0  32440-3 0  9996,2 52374  53.2151 182.7945 0001029  98.3492 261.7617 15.08841445 58758,6917.876,95.437,540.453,539.029,0.0
52374.0,STARLINK-3762,PAYLOAD,2023-05-04 12:26:22,15.08841159,0.000104,53.2146,178.6315,96.2489,263.8621,0.00011586,1.557e-05,0.0,0 STARLINK-3762,1 52374U 22045AV  23124.51832005  .00001557  00000-0  11586-3 0  9992,2 52374  53.2146 178.6315 0001040  96.2489 263.8621 15.08841159 58898,6917.877,95.437,540.461,539.022,0.0
52374.0,STARLINK-3762,PAYLOAD,2023-05-04 14:01:45,15.08841682,0.0001067,53.2147,178.3342,97.7718,262.3396,0.0001365,1.885e-05,0.0,0 STARLINK-3762,1 52374U 22045AV  23124.58455994  .00001885  00000-0  13650-3 0  9995,2 52374  53.2147 178.3342 0001067  97.7718 262.3396 15.08841682 58902,6917.875,95.437,540.478,539.002,0.0
52374.0,STARLINK-3762,PAYLOAD,2023-05-04 20:23:18,15.08836827,0.0001009,53.2139,177.1445,92.1572,267.9535,5.1416e-05,5.31e-06,0.0,0 STARLINK-3762,1 52374U 22045AV  23124.84952240  .00000531  00000-0  51416-4 0  9990,2 52374  53.2139 177.1445 0001009  92.1572 267.9535 15.08836827 58942,6917.89,95.438,540.453,539.057,0.0
52374.0,STARLINK-3762,PAYLOAD,2023-05-05 09:06:24,15.08837369,0.0001037,53.214,174.7654,92.647,267.4641,0.00011062,1.473e-05,0.0,0 STARLINK-3762,1 52374U 22045AV  23125.37944478  .00001473  00000-0  11062-3 0  9991,2 52374  53.2140 174.7654 0001037  92.6470 267.4641 15.08837369 59027,6917.888,95.438,540.471,539.036,0.0
52374.0,STARLINK-3762,PAYLOAD,2023-05-05 20:14:05,15.08839985,0.0001045,53.214,172.6837,89.5903,270.5209,0.0001387,1.92e-05,0.0,0 STARLINK-3762,1 52374U 22045AV  23125.84312476  .00001920  00000-0  13870-3 0  9996,2 52374  53.2140 172.6837 0001045  89.5903 270.5209 15.08839985 59090,6917.88,95.438,540.468,539.023,0.0
52374.0,STARLINK-3762,PAYLOAD,2023-05-06 07:21:47,15.08842294,0.0001038,53.2136,170.6019,89.0409,271.0701,0.00014227,1.977e-05,0.0,0 STARLINK-3762,1 52374U 22045AV  23126.30680470  .00001977  00000-0  14227-3 0  9999,2 52374  53.2136 170.6019 0001038  89.0409 271.0701 15.08842294 59161,6917.873,95.437,540.456,539.02,0.0
52374.0,STARLINK-3762,PAYLOAD,2023-05-07 02:26:25,15.08842825,0.0001163,53.213,167.0329,85.1914,274.9211,0.00015825,2.232e-05,0.0,0 STARLINK-3762,1 52374U 22045AV  23127.10168546  .00002232  00000-0  15825-3 0  9993,2 52374  53.2130 167.0329 0001163  85.1914 274.9211 15.08842825 59287,6917.872,95.437,540.541,538.932,0.0
52374.0,STARLINK-3762,PAYLOAD,2023-05-07 08:47:58,15.08842374,0.0001088,53.2129,165.8428,87.0048,273.1069,0.00010684,1.413e-05,0.0,0 STARLINK-3762,1 52374U 22045AV  23127.36664535  .00001413  00000-0  10684-3 0  9998,2 52374  53.2129 165.8428 0001088  87.0048 273.1069 15.08842374 59322,6917.873,95.437,540.491,538.985,0.0
52374.0,STARLINK-3762,PAYLOAD,2023-05-07 19:55:40,15.08842495,0.0001065,53.2131,163.7617,86.3682,273.7431,0.00011253,1.504e-05,0.0,0 STARLINK-3762,1 52374U 22045AV  23127.83032548  .00001504  00000-0  11253-3 0  9997,2 52374  53.2131 163.7617 0001065  86.3682 273.7431 15.08842495 59393,6917.873,95.437,540.475,539.001,0.0
52374.0,STARLINK-3762,PAYLOAD,2023-05-08 11:49:31,15.08842268,0.0001277,53.215,160.7892,80.15,279.9636,6.1088e-05,6.85e-06,0.0,0 STARLINK-3762,1 52374U 22045AV  23128.49272632  .00000685  00000-0  61088-4 0  9991,2 52374  53.2150 160.7892 0001277  80.1500 279.9636 15.08842268 59496,6917.873,95.437,540.622,538.855,0.0
52374.0,STARLINK-3762,PAYLOAD,2023-05-08 19:46:27,15.08842089,0.0001271,53.215,159.3025,78.9727,281.1408,9.0635e-05,1.155e-05,0.0,0 STARLINK-3762,1 52374U 22045AV  23128.82392512  .00001155  00000-0  90635-4 0  9991,2 52374  53.2150 159.3025 0001271  78.9727 281.1408 15.08842089 59547,6917.874,95.437,540.618,538.86,0.0
